{"fetched_at":"2026-07-15T17:47:13.894Z","source":"https://celestrak.org/NORAD/elements/gp.php?NAME=HULIANWANG&FORMAT=JSON","constellation":"guowang","records":[{"OBJECT_NAME":"HULIANWANG DIGUI-156","OBJECT_ID":"2026-047B","EPOCH":"2026-07-14T14:04:01.019424","CLASSIFICATION_TYPE":"U","MEAN_MOTION":13.29326177,"ECCENTRICITY":0.0000848,"INCLINATION":50.0052,"RA_OF_ASC_NODE":318.0462,"ARG_OF_PERICENTER":200.3225,"MEAN_ANOMALY":159.7613,"EPHEMERIS_TYPE":0,"NORAD_CAT_ID":68130,"ELEMENT_SET_NO":999,"REV_AT_EPOCH":1670,"BSTAR":0.0000492,"MEAN_MOTION_DOT":-0.00000101,"MEAN_MOTION_DDOT":0},{"OBJECT_NAME":"HULIANWANG DIGUI-157","OBJECT_ID":"2026-047C","EPOCH":"2026-07-14T13:52:00.699168","CLASSIFICATION_TYPE":"U","MEAN_MOTION":13.29325415,"ECCENTRICITY":0.0000895,"INCLINATION":50.0022,"RA_OF_ASC_NODE":317.9736,"ARG_OF_PERICENTER":195.9364,"MEAN_ANOMALY":164.148,"EPHEMERIS_TYPE":0,"NORAD_CAT_ID":68131,"ELEMENT_SET_NO":999,"REV_AT_EPOCH":1671,"BSTAR":0.000021654,"MEAN_MOTION_DOT":-0.00000114,"MEAN_MOTION_DDOT":0},{"OBJECT_NAME":"HULIANWANG DIGUI-158","OBJECT_ID":"2026-047D","EPOCH":"2026-07-14T13:39:56.213568","CLASSIFICATION_TYPE":"U","MEAN_MOTION":13.29324302,"ECCENTRICITY":0.0000956,"INCLINATION":50.0074,"RA_OF_ASC_NODE":317.9787,"ARG_OF_PERICENTER":196.6152,"MEAN_ANOMALY":163.4689,"EPHEMERIS_TYPE":0,"NORAD_CAT_ID":68132,"ELEMENT_SET_NO":999,"REV_AT_EPOCH":1670,"BSTAR":0.000080901,"MEAN_MOTION_DOT":-8.7e-7,"MEAN_MOTION_DDOT":0},{"OBJECT_NAME":"HULIANWANG DIGUI-159","OBJECT_ID":"2026-047E","EPOCH":"2026-07-14T17:04:27.199488","CLASSIFICATION_TYPE":"U","MEAN_MOTION":13.2932599,"ECCENTRICITY":0.0001057,"INCLINATION":50.0036,"RA_OF_ASC_NODE":317.3638,"ARG_OF_PERICENTER":191.7662,"MEAN_ANOMALY":168.3186,"EPHEMERIS_TYPE":0,"NORAD_CAT_ID":68133,"ELEMENT_SET_NO":999,"REV_AT_EPOCH":1673,"BSTAR":0.000051866978,"MEAN_MOTION_DOT":-0.000001,"MEAN_MOTION_DDOT":0},{"OBJECT_NAME":"HULIANWANG DIGUI-160","OBJECT_ID":"2026-047F","EPOCH":"2026-07-14T14:52:01.071840","CLASSIFICATION_TYPE":"U","MEAN_MOTION":13.29325748,"ECCENTRICITY":0.0001102,"INCLINATION":50.0092,"RA_OF_ASC_NODE":317.6062,"ARG_OF_PERICENTER":180.2697,"MEAN_ANOMALY":179.8174,"EPHEMERIS_TYPE":0,"NORAD_CAT_ID":68134,"ELEMENT_SET_NO":999,"REV_AT_EPOCH":1671,"BSTAR":0.000073356686,"MEAN_MOTION_DOT":-9e-7,"MEAN_MOTION_DDOT":0},{"OBJECT_NAME":"HULIANWANG DIGUI-161","OBJECT_ID":"2026-047G","EPOCH":"2026-07-14T13:15:48.037248","CLASSIFICATION_TYPE":"U","MEAN_MOTION":13.29334363,"ECCENTRICITY":0.0000917,"INCLINATION":50.0113,"RA_OF_ASC_NODE":317.94,"ARG_OF_PERICENTER":194.028,"MEAN_ANOMALY":166.0567,"EPHEMERIS_TYPE":0,"NORAD_CAT_ID":68135,"ELEMENT_SET_NO":999,"REV_AT_EPOCH":1671,"BSTAR":0.000057448,"MEAN_MOTION_DOT":-9.7e-7,"MEAN_MOTION_DDOT":0},{"OBJECT_NAME":"HULIANWANG DIGUI-162","OBJECT_ID":"2026-047H","EPOCH":"2026-07-14T18:16:50.318400","CLASSIFICATION_TYPE":"U","MEAN_MOTION":13.29324173,"ECCENTRICITY":0.00009017,"INCLINATION":50.0083,"RA_OF_ASC_NODE":317.0151,"ARG_OF_PERICENTER":201.0246,"MEAN_ANOMALY":159.0589,"EPHEMERIS_TYPE":0,"NORAD_CAT_ID":68136,"ELEMENT_SET_NO":999,"REV_AT_EPOCH":1673,"BSTAR":0.000066529538,"MEAN_MOTION_DOT":-9.3e-7,"MEAN_MOTION_DDOT":0},{"OBJECT_NAME":"HULIANWANG DIGUI-163","OBJECT_ID":"2026-047J","EPOCH":"2026-07-14T16:16:16.818816","CLASSIFICATION_TYPE":"U","MEAN_MOTION":13.2933904,"ECCENTRICITY":0.0000769,"INCLINATION":50.0086,"RA_OF_ASC_NODE":317.2434,"ARG_OF_PERICENTER":200.6889,"MEAN_ANOMALY":159.3952,"EPHEMERIS_TYPE":0,"NORAD_CAT_ID":68137,"ELEMENT_SET_NO":999,"REV_AT_EPOCH":1673,"BSTAR":0.000068306611,"MEAN_MOTION_DOT":-9.2e-7,"MEAN_MOTION_DDOT":0},{"OBJECT_NAME":"HULIANWANG DIGUI-164","OBJECT_ID":"2026-076A","EPOCH":"2026-07-15T03:43:17.989248","CLASSIFICATION_TYPE":"U","MEAN_MOTION":13.24410829,"ECCENTRICITY":0.0002029,"INCLINATION":86.4946,"RA_OF_ASC_NODE":34.4319,"ARG_OF_PERICENTER":78.5544,"MEAN_ANOMALY":281.5817,"EPHEMERIS_TYPE":0,"NORAD_CAT_ID":68656,"ELEMENT_SET_NO":999,"REV_AT_EPOCH":1307,"BSTAR":-0.000024318,"MEAN_MOTION_DOT":4e-8,"MEAN_MOTION_DDOT":0},{"OBJECT_NAME":"HULIANWANG DIGUI-165","OBJECT_ID":"2026-076B","EPOCH":"2026-07-15T03:32:26.369088","CLASSIFICATION_TYPE":"U","MEAN_MOTION":13.24413457,"ECCENTRICITY":0.0002153,"INCLINATION":86.4965,"RA_OF_ASC_NODE":34.4511,"ARG_OF_PERICENTER":84.8245,"MEAN_ANOMALY":275.3135,"EPHEMERIS_TYPE":0,"NORAD_CAT_ID":68657,"ELEMENT_SET_NO":999,"REV_AT_EPOCH":1307,"BSTAR":-0.000071708,"MEAN_MOTION_DOT":-1.6e-7,"MEAN_MOTION_DDOT":0},{"OBJECT_NAME":"HULIANWANG DIGUI-166","OBJECT_ID":"2026-076C","EPOCH":"2026-07-15T03:21:38.857248","CLASSIFICATION_TYPE":"U","MEAN_MOTION":13.24411479,"ECCENTRICITY":0.000212,"INCLINATION":86.4907,"RA_OF_ASC_NODE":34.385,"ARG_OF_PERICENTER":84.6793,"MEAN_ANOMALY":275.4582,"EPHEMERIS_TYPE":0,"NORAD_CAT_ID":68658,"ELEMENT_SET_NO":999,"REV_AT_EPOCH":1307,"BSTAR":-0.000070522,"MEAN_MOTION_DOT":-1.6e-7,"MEAN_MOTION_DDOT":0},{"OBJECT_NAME":"HULIANWANG DIGUI-167","OBJECT_ID":"2026-076D","EPOCH":"2026-07-15T03:10:40.491840","CLASSIFICATION_TYPE":"U","MEAN_MOTION":13.24413557,"ECCENTRICITY":0.0002117,"INCLINATION":86.4961,"RA_OF_ASC_NODE":34.4408,"ARG_OF_PERICENTER":84.4056,"MEAN_ANOMALY":275.732,"EPHEMERIS_TYPE":0,"NORAD_CAT_ID":68659,"ELEMENT_SET_NO":999,"REV_AT_EPOCH":1307,"BSTAR":-0.000046073,"MEAN_MOTION_DOT":-5e-8,"MEAN_MOTION_DDOT":0},{"OBJECT_NAME":"HULIANWANG DIGUI-168","OBJECT_ID":"2026-076E","EPOCH":"2026-07-15T04:48:35.404992","CLASSIFICATION_TYPE":"U","MEAN_MOTION":13.24411735,"ECCENTRICITY":0.0002143,"INCLINATION":86.4942,"RA_OF_ASC_NODE":34.3911,"ARG_OF_PERICENTER":84.9539,"MEAN_ANOMALY":275.184,"EPHEMERIS_TYPE":0,"NORAD_CAT_ID":68660,"ELEMENT_SET_NO":999,"REV_AT_EPOCH":1307,"BSTAR":-0.000072465,"MEAN_MOTION_DOT":-1.6e-7,"MEAN_MOTION_DDOT":0}]}
